{"fetched_at":"2026-07-11T06:35:06.838Z","source":"https://celestrak.org/NORAD/elements/gp.php?GROUP=oneweb&FORMAT=JSON","constellation":"oneweb","records":[{"OBJECT_NAME":"ONEWEB-0205","OBJECT_ID":"2021-031S","EPOCH":"2026-07-10T04:50:05.038944","CLASSIFICATION_TYPE":"U","MEAN_MOTION":13.14502332,"ECCENTRICITY":0.00023426,"INCLINATION":87.8981,"RA_OF_ASC_NODE":285.1126,"ARG_OF_PERICENTER":97.7252,"MEAN_ANOMALY":262.4143,"EPHEMERIS_TYPE":0,"NORAD_CAT_ID":48226,"ELEMENT_SET_NO":999,"REV_AT_EPOCH":25129,"BSTAR":-0.00035119066,"MEAN_MOTION_DOT":-0.00000117,"MEAN_MOTION_DDOT":0},{"OBJECT_NAME":"ONEWEB-0206","OBJECT_ID":"2021-031T","EPOCH":"2026-07-09T06:15:56.519712","CLASSIFICATION_TYPE":"U","MEAN_MOTION":13.14501869,"ECCENTRICITY":0.00018801,"INCLINATION":87.8975,"RA_OF_ASC_NODE":285.3006,"ARG_OF_PERICENTER":102.9897,"MEAN_ANOMALY":257.1443,"EPHEMERIS_TYPE":0,"NORAD_CAT_ID":48227,"ELEMENT_SET_NO":999,"REV_AT_EPOCH":25112,"BSTAR":0.00053558329,"MEAN_MOTION_DOT":0.00000211,"MEAN_MOTION_DDOT":0},{"OBJECT_NAME":"ONEWEB-0182","OBJECT_ID":"2021-031U","EPOCH":"2026-07-10T05:54:01.092672","CLASSIFICATION_TYPE":"U","MEAN_MOTION":13.14503788,"ECCENTRICITY":0.00019503,"INCLINATION":87.8969,"RA_OF_ASC_NODE":285.1116,"ARG_OF_PERICENTER":93.7218,"MEAN_ANOMALY":266.4135,"EPHEMERIS_TYPE":0,"NORAD_CAT_ID":48228,"ELEMENT_SET_NO":999,"REV_AT_EPOCH":25146,"BSTAR":0.00051769005,"MEAN_MOTION_DOT":0.00000205,"MEAN_MOTION_DDOT":0},{"OBJECT_NAME":"ONEWEB-0186","OBJECT_ID":"2021-031V","EPOCH":"2026-07-09T04:35:28.490208","CLASSIFICATION_TYPE":"U","MEAN_MOTION":13.14502615,"ECCENTRICITY":0.00021312,"INCLINATION":87.8985,"RA_OF_ASC_NODE":285.3137,"ARG_OF_PERICENTER":101.1848,"MEAN_ANOMALY":258.9522,"EPHEMERIS_TYPE":0,"NORAD_CAT_ID":48229,"ELEMENT_SET_NO":999,"REV_AT_EPOCH":25127,"BSTAR":0.00025021886,"MEAN_MOTION_DOT":0.00000106,"MEAN_MOTION_DDOT":0},{"OBJECT_NAME":"ONEWEB-0181","OBJECT_ID":"2021-031W","EPOCH":"2026-07-09T05:53:05.471808","CLASSIFICATION_TYPE":"U","MEAN_MOTION":13.14504809,"ECCENTRICITY":0.0002241,"INCLINATION":87.8959,"RA_OF_ASC_NODE":285.3289,"ARG_OF_PERICENTER":101.2601,"MEAN_ANOMALY":258.8781,"EPHEMERIS_TYPE":0,"NORAD_CAT_ID":48230,"ELEMENT_SET_NO":999,"REV_AT_EPOCH":25113,"BSTAR":0.00054144416,"MEAN_MOTION_DOT":0.00000214,"MEAN_MOTION_DDOT":0},{"OBJECT_NAME":"ONEWEB-0188","OBJECT_ID":"2021-031X","EPOCH":"2026-07-10T04:43:13.657440","CLASSIFICATION_TYPE":"U","MEAN_MOTION":13.14502109,"ECCENTRICITY":0.00020589,"INCLINATION":87.8962,"RA_OF_ASC_NODE":285.1391,"ARG_OF_PERICENTER":97.7321,"MEAN_ANOMALY":262.4042,"EPHEMERIS_TYPE":0,"NORAD_CAT_ID":48231,"ELEMENT_SET_NO":999,"REV_AT_EPOCH":25116,"BSTAR":-0.00019270133,"MEAN_MOTION_DOT":-5.9e-7,"MEAN_MOTION_DDOT":0},{"OBJECT_NAME":"ONEWEB-0220","OBJECT_ID":"2021-031Y","EPOCH":"2026-07-10T05:40:18.327936","CLASSIFICATION_TYPE":"U","MEAN_MOTION":13.14503752,"ECCENTRICITY":0.00022998,"INCLINATION":87.8972,"RA_OF_ASC_NODE":285.1081,"ARG_OF_PERICENTER":97.5146,"MEAN_ANOMALY":262.6245,"EPHEMERIS_TYPE":0,"NORAD_CAT_ID":48232,"ELEMENT_SET_NO":999,"REV_AT_EPOCH":25143,"BSTAR":0.00034747194,"MEAN_MOTION_DOT":0.00000142,"MEAN_MOTION_DDOT":0},{"OBJECT_NAME":"ONEWEB-0165","OBJECT_ID":"2021-031Z","EPOCH":"2026-07-10T06:21:26.095104","CLASSIFICATION_TYPE":"U","MEAN_MOTION":13.14503611,"ECCENTRICITY":0.000241,"INCLINATION":87.8971,"RA_OF_ASC_NODE":285.1133,"ARG_OF_PERICENTER":103.7881,"MEAN_ANOMALY":256.3517,"EPHEMERIS_TYPE":0,"NORAD_CAT_ID":48233,"ELEMENT_SET_NO":999,"REV_AT_EPOCH":25139,"BSTAR":0.00023447719,"MEAN_MOTION_DOT":0.000001,"MEAN_MOTION_DDOT":0},{"OBJECT_NAME":"ONEWEB-0199","OBJECT_ID":"2021-031AA","EPOCH":"2026-07-10T05:58:35.601888","CLASSIFICATION_TYPE":"U","MEAN_MOTION":13.14502,"ECCENTRICITY":0.00018532,"INCLINATION":87.8986,"RA_OF_ASC_NODE":285.1022,"ARG_OF_PERICENTER":106.2115,"MEAN_ANOMALY":253.9219,"EPHEMERIS_TYPE":0,"NORAD_CAT_ID":48234,"ELEMENT_SET_NO":999,"REV_AT_EPOCH":25129,"BSTAR":0.00073794406,"MEAN_MOTION_DOT":0.00000286,"MEAN_MOTION_DDOT":0},{"OBJECT_NAME":"ONEWEB-0203","OBJECT_ID":"2021-031AB","EPOCH":"2026-07-10T05:44:52.963296","CLASSIFICATION_TYPE":"U","MEAN_MOTION":13.14501526,"ECCENTRICITY":0.0002003,"INCLINATION":87.8969,"RA_OF_ASC_NODE":285.109,"ARG_OF_PERICENTER":108.2812,"MEAN_ANOMALY":251.8536,"EPHEMERIS_TYPE":0,"NORAD_CAT_ID":48235,"ELEMENT_SET_NO":999,"REV_AT_EPOCH":25130,"BSTAR":0.0004516509,"MEAN_MOTION_DOT":0.0000018,"MEAN_MOTION_DDOT":0},{"OBJECT_NAME":"ONEWEB-0197","OBJECT_ID":"2021-031AC","EPOCH":"2026-07-09T05:23:13.026912","CLASSIFICATION_TYPE":"U","MEAN_MOTION":13.14502122,"ECCENTRICITY":0.00020105,"INCLINATION":87.8966,"RA_OF_ASC_NODE":285.2954,"ARG_OF_PERICENTER":92.8752,"MEAN_ANOMALY":267.2608,"EPHEMERIS_TYPE":0,"NORAD_CAT_ID":48236,"ELEMENT_SET_NO":999,"REV_AT_EPOCH":25108,"BSTAR":-0.00023385267,"MEAN_MOTION_DOT":-7.4e-7,"MEAN_MOTION_DDOT":0},{"OBJECT_NAME":"ONEWEB-0194","OBJECT_ID":"2021-031AD","EPOCH":"2026-07-10T04:38:39.778944","CLASSIFICATION_TYPE":"U","MEAN_MOTION":13.14503833,"ECCENTRICITY":0.00018817,"INCLINATION":87.8963,"RA_OF_ASC_NODE":285.1264,"ARG_OF_PERICENTER":108.7782,"MEAN_ANOMALY":251.3552,"EPHEMERIS_TYPE":0,"NORAD_CAT_ID":48237,"ELEMENT_SET_NO":999,"REV_AT_EPOCH":25138,"BSTAR":0.000060376265,"MEAN_MOTION_DOT":3.5e-7,"MEAN_MOTION_DDOT":0},{"OBJECT_NAME":"ONEWEB-0193","OBJECT_ID":"2021-031AE","EPOCH":"2026-07-10T05:01:30.085536","CLASSIFICATION_TYPE":"U","MEAN_MOTION":13.14502191,"ECCENTRICITY":0.00017381,"INCLINATION":87.8969,"RA_OF_ASC_NODE":285.1118,"ARG_OF_PERICENTER":109.7268,"MEAN_ANOMALY":250.405,"EPHEMERIS_TYPE":0,"NORAD_CAT_ID":48238,"ELEMENT_SET_NO":999,"REV_AT_EPOCH":25133,"BSTAR":-0.00062874167,"MEAN_MOTION_DOT":-0.0000022,"MEAN_MOTION_DDOT":0},{"OBJECT_NAME":"ONEWEB-0191","OBJECT_ID":"2021-031AF","EPOCH":"2026-07-10T05:17:29.294880","CLASSIFICATION_TYPE":"U","MEAN_MOTION":13.14506789,"ECCENTRICITY":0.00021073,"INCLINATION":87.8982,"RA_OF_ASC_NODE":285.1108,"ARG_OF_PERICENTER":96.4585,"MEAN_ANOMALY":263.6784,"EPHEMERIS_TYPE":0,"NORAD_CAT_ID":48239,"ELEMENT_SET_NO":999,"REV_AT_EPOCH":25119,"BSTAR":-0.00058774836,"MEAN_MOTION_DOT":-0.00000205,"MEAN_MOTION_DDOT":0},{"OBJECT_NAME":"ONEWEB-0195","OBJECT_ID":"2021-031AG","EPOCH":"2026-07-08T19:51:24.131232","CLASSIFICATION_TYPE":"U","MEAN_MOTION":13.14503192,"ECCENTRICITY":0.0002428,"INCLINATION":87.8984,"RA_OF_ASC_NODE":285.3867,"ARG_OF_PERICENTER":104.232,"MEAN_ANOMALY":255.908,"EPHEMERIS_TYPE":0,"NORAD_CAT_ID":48240,"ELEMENT_SET_NO":999,"REV_AT_EPOCH":25099,"BSTAR":-0.00055116508,"MEAN_MOTION_DOT":-0.00000192,"MEAN_MOTION_DDOT":0},{"OBJECT_NAME":"ONEWEB-0201","OBJECT_ID":"2021-031AH","EPOCH":"2026-07-10T04:27:26.462880","CLASSIFICATION_TYPE":"U","MEAN_MOTION":13.1450216,"ECCENTRICITY":0.00020766,"INCLINATION":87.8972,"RA_OF_ASC_NODE":285.1316,"ARG_OF_PERICENTER":91.6013,"MEAN_ANOMALY":268.5355,"EPHEMERIS_TYPE":0,"NORAD_CAT_ID":48241,"ELEMENT_SET_NO":999,"REV_AT_EPOCH":25140,"BSTAR":0.00035542273,"MEAN_MOTION_DOT":0.00000145,"MEAN_MOTION_DDOT":0}]}
